start=new Date('2022-02-13T00:00:00.000Z').valueOf();
sats=[{"ARG_OF_PERICENTER":"283.1063","OBJECT_NAME":"STARLINK-3086","APOAPSIS":"574.726","CLASSIFICATION_TYPE":"U","FILE":"3298524","TLE_LINE1":"1 49178U 21082BA  22043.54256005  .00001792  00000-0  15793-3 0  9997","EPHEMERIS_TYPE":"0","PERIAPSIS":"569.359","EPOCH":"2022-02-12T13:01:17.188320","ECCENTRICITY":"0.00038610","REF_FRAME":"TEME","LAUNCH_DATE":"2021-09-14","TLE_LINE2":"2 49178  69.9985  81.5549 0003861 283.1063  76.9665 14.98335074 24526","SEMIMAJOR_AXIS":"6950.177","CENTER_NAME":"EARTH","MEAN_ANOMALY":"76.9665","TIME_SYSTEM":"UTC","MEAN_MOTION":"14.98335074","PERIOD":"96.107","ELEMENT_SET_NO":"999","REV_AT_EPOCH":"2452","INCLINATION":"69.9985","SITE":"AFWTR","BSTAR":"0.00015793000000","OBJECT_ID":"2021-082BA","MEAN_MOTION_DDOT":"0.0000000000000","NORAD_CAT_ID":"49178","DECAY_DATE":null,"RCS_SIZE":"LARGE","GP_ID":"195825028","MEAN_MOTION_DOT":"0.00001792","COUNTRY_CODE":"US","OBJECT_TYPE":"PAYLOAD","MEAN_ELEMENT_THEORY":"SGP4","RA_OF_ASC_NODE":"81.5549"},{"OBJECT_ID":"2021-082BB","BSTAR":"0.00027385000000","MEAN_MOTION_DDOT":"0.0000000000000","DECAY_DATE":null,"NORAD_CAT_ID":"49179","MEAN_MOTION_DOT":"0.00032554","RCS_SIZE":"LARGE","GP_ID":"195825071","MEAN_ELEMENT_THEORY":"SGP4","OBJECT_TYPE":"PAYLOAD","COUNTRY_CODE":"US","RA_OF_ASC_NODE":"61.0480","APOAPSIS":"362.236","ARG_OF_PERICENTER":"299.0999","OBJECT_NAME":"STARLINK-3043","FILE":"3298532","CLASSIFICATION_TYPE":"U","EPOCH":"2022-02-12T14:00:01.000224","PERIAPSIS":"357.223","EPHEMERIS_TYPE":"0","TLE_LINE1":"1 49179U 21082BB  22043.58334491  .00032554  00000-0  27385-3 0  9998","ECCENTRICITY":"0.00037200","CENTER_NAME":"EARTH","TLE_LINE2":"2 49179  69.9984  61.0480 0003720 299.0999  68.2821 15.69709725 23873","SEMIMAJOR_AXIS":"6737.865","MEAN_ANOMALY":"68.2821","REF_FRAME":"TEME","LAUNCH_DATE":"2021-09-14","TIME_SYSTEM":"UTC","ELEMENT_SET_NO":"999","PERIOD":"91.737","MEAN_MOTION":"15.69709725","SITE":"AFWTR","INCLINATION":"69.9984","REV_AT_EPOCH":"2387"},{"RA_OF_ASC_NODE":"62.5902","COUNTRY_CODE":"US","OBJECT_TYPE":"PAYLOAD","MEAN_ELEMENT_THEORY":"SGP4","RCS_SIZE":"LARGE","GP_ID":"195825246","MEAN_MOTION_DOT":"-0.00662936","NORAD_CAT_ID":"49180","DECAY_DATE":null,"MEAN_MOTION_DDOT":"0.0000000000000","BSTAR":"-0.01898300000000","OBJECT_ID":"2021-082BC","REV_AT_EPOCH":"2500","SITE":"AFWTR","INCLINATION":"69.9998","MEAN_MOTION":"15.38047870","PERIOD":"93.625","ELEMENT_SET_NO":"999","TIME_SYSTEM":"UTC","REF_FRAME":"TEME","LAUNCH_DATE":"2021-09-14","SEMIMAJOR_AXIS":"6830.019","TLE_LINE2":"2 49180  69.9998  62.5902 0003303 277.3501 247.1462 15.38047870 25008","CENTER_NAME":"EARTH","MEAN_ANOMALY":"247.1462","ECCENTRICITY":"0.00033030","TLE_LINE1":"1 49180U 21082BC  22043.58334491 -.00662936  00000-0 -18983-1 0  9997","PERIAPSIS":"449.628","EPHEMERIS_TYPE":"0","EPOCH":"2022-02-12T14:00:01.000224","CLASSIFICATION_TYPE":"U","FILE":"3298532","ARG_OF_PERICENTER":"277.3501","OBJECT_NAME":"STARLINK-3050","APOAPSIS":"454.140"},{"APOAPSIS":"574.399","ARG_OF_PERICENTER":"277.7658","OBJECT_NAME":"STARLINK-3059","CLASSIFICATION_TYPE":"U","FILE":"3298532","EPOCH":"2022-02-12T12:33:49.510944","EPHEMERIS_TYPE":"0","PERIAPSIS":"569.649","TLE_LINE1":"1 49181U 21082BD  22043.52348971  .00000872  00000-0  80832-4 0  9998","ECCENTRICITY":"0.00034170","TLE_LINE2":"2 49181  70.0004  81.6061 0003417 277.7658  82.3113 14.98340903 24538","CENTER_NAME":"EARTH","SEMIMAJOR_AXIS":"6950.159","MEAN_ANOMALY":"82.3113","REF_FRAME":"TEME","LAUNCH_DATE":"2021-09-14","TIME_SYSTEM":"UTC","ELEMENT_SET_NO":"999","PERIOD":"96.106","MEAN_MOTION":"14.98340903","SITE":"AFWTR","INCLINATION":"70.0004","REV_AT_EPOCH":"2453","BSTAR":"0.00008083200000","OBJECT_ID":"2021-082BD","MEAN_MOTION_DDOT":"0.0000000000000","DECAY_DATE":null,"NORAD_CAT_ID":"49181","MEAN_MOTION_DOT":"0.00000872","GP_ID":"195825069","RCS_SIZE":"LARGE","MEAN_ELEMENT_THEORY":"SGP4","OBJECT_TYPE":"PAYLOAD","COUNTRY_CODE":"US","RA_OF_ASC_NODE":"81.6061"},{"DECAY_DATE":null,"NORAD_CAT_ID":"49408","MEAN_MOTION_DOT":"0.00012655","GP_ID":"195823274","RCS_SIZE":"LARGE","MEAN_ELEMENT_THEORY":"SGP4","OBJECT_TYPE":"PAYLOAD","COUNTRY_CODE":"US","RA_OF_ASC_NODE":"60.5160","BSTAR":"0.00081168000000","OBJECT_ID":"2021-104A","MEAN_MOTION_DDOT":"0.0000000000000","MEAN_ANOMALY":"145.1702","TLE_LINE2":"2 49408  53.2169  60.5160 0002009  37.9835 145.1702 15.08844235  3606","SEMIMAJOR_AXIS":"6917.867","CENTER_NAME":"EARTH","LAUNCH_DATE":"2021-11-13","REF_FRAME":"TEME","TIME_SYSTEM":"UTC","ELEMENT_SET_NO":"999","PERIOD":"95.437","MEAN_MOTION":"15.08844235","SITE":"AFETR","INCLINATION":"53.2169","REV_AT_EPOCH":"360","APOAPSIS":"541.122","ARG_OF_PERICENTER":"37.9835","OBJECT_NAME":"STARLINK-3151","CLASSIFICATION_TYPE":"U","FILE":"3298493","EPOCH":"2022-02-12T14:00:01.000224","PERIAPSIS":"538.343","EPHEMERIS_TYPE":"0","TLE_LINE1":"1 49408U 21104A   22043.58334491  .00012655  00000-0  81168-3 0  9997","ECCENTRICITY":"0.00020090"},{"MEAN_ANOMALY":"70.5608","TLE_LINE2":"2 49409  53.2188  60.4996 0002239  32.6713  70.5608 15.08840127 15375","SEMIMAJOR_AXIS":"6917.880","CENTER_NAME":"EARTH","REF_FRAME":"TEME","LAUNCH_DATE":"2021-11-13","TIME_SYSTEM":"UTC","MEAN_MOTION":"15.08840127","ELEMENT_SET_NO":"999","PERIOD":"95.438","INCLINATION":"53.2188","SITE":"AFETR","REV_AT_EPOCH":"1537","ARG_OF_PERICENTER":"32.6713","OBJECT_NAME":"STARLINK-3075","APOAPSIS":"541.294","FILE":"3298447","CLASSIFICATION_TYPE":"U","PERIAPSIS":"538.196","EPHEMERIS_TYPE":"0","TLE_LINE1":"1 49409U 21104B   22043.58334491 -.00033400  00000-0 -20901-2 0  9998","EPOCH":"2022-02-12T14:00:01.000224","ECCENTRICITY":"0.00022390","NORAD_CAT_ID":"49409","DECAY_DATE":null,"MEAN_MOTION_DOT":"-0.00033400","RCS_SIZE":"LARGE","GP_ID":"195797169","OBJECT_TYPE":"PAYLOAD","COUNTRY_CODE":"US","MEAN_ELEMENT_THEORY":"SGP4","RA_OF_ASC_NODE":"60.4996","BSTAR":"-0.00209010000000","OBJECT_ID":"2021-104B","MEAN_MOTION_DDOT":"0.0000000000000"},{"LAUNCH_DATE":"2021-11-13","REF_FRAME":"TEME","TLE_LINE2":"2 49410  53.2160  60.5201 0002353  34.4062 108.8134 15.08839242 15365","SEMIMAJOR_AXIS":"6917.883","MEAN_ANOMALY":"108.8134","CENTER_NAME":"EARTH","TIME_SYSTEM":"UTC","MEAN_MOTION":"15.08839242","PERIOD":"95.438","ELEMENT_SET_NO":"999","REV_AT_EPOCH":"1536","SITE":"AFETR","INCLINATION":"53.2160","OBJECT_NAME":"STARLINK-3147","ARG_OF_PERICENTER":"34.4062","APOAPSIS":"541.375","CLASSIFICATION_TYPE":"U","FILE":"3298447","TLE_LINE1":"1 49410U 21104C   22043.58334491 -.00027666  00000-0 -17268-2 0  9999","PERIAPSIS":"538.120","EPHEMERIS_TYPE":"0","EPOCH":"2022-02-12T14:00:01.000224","ECCENTRICITY":"0.00023530","NORAD_CAT_ID":"49410","DECAY_DATE":null,"GP_ID":"195797167","RCS_SIZE":"LARGE","MEAN_MOTION_DOT":"-0.00027666","COUNTRY_CODE":"US","OBJECT_TYPE":"PAYLOAD","MEAN_ELEMENT_THEORY":"SGP4","RA_OF_ASC_NODE":"60.5201","BSTAR":"-0.00172680000000","OBJECT_ID":"2021-104C","MEAN_MOTION_DDOT":"0.0000000000000"},{"DECAY_DATE":null,"NORAD_CAT_ID":"49411","RCS_SIZE":"LARGE","GP_ID":"195822694","MEAN_MOTION_DOT":"-0.00663362","MEAN_ELEMENT_THEORY":"SGP4","COUNTRY_CODE":"US","OBJECT_TYPE":"PAYLOAD","RA_OF_ASC_NODE":"50.6735","BSTAR":"-0.03613300000000","OBJECT_ID":"2021-104D","MEAN_MOTION_DDOT":"0.0000000000000","REF_FRAME":"TEME","LAUNCH_DATE":"2021-11-13","TLE_LINE2":"2 49411  53.2171  50.6735 0001734  41.3667  65.3210 15.16280731 15500","SEMIMAJOR_AXIS":"6895.230","CENTER_NAME":"EARTH","MEAN_ANOMALY":"65.3210","TIME_SYSTEM":"UTC","PERIOD":"94.969","ELEMENT_SET_NO":"999","MEAN_MOTION":"15.16280731","REV_AT_EPOCH":"1550","SITE":"AFETR","INCLINATION":"53.2171","APOAPSIS":"518.291","ARG_OF_PERICENTER":"41.3667","OBJECT_NAME":"STARLINK-3162","FILE":"3298493","CLASSIFICATION_TYPE":"U","EPOCH":"2022-02-12T14:00:01.000224","TLE_LINE1":"1 49411U 21104D   22043.58334491 -.00663362  00000-0 -36133-1 0  9990","PERIAPSIS":"515.899","EPHEMERIS_TYPE":"0","ECCENTRICITY":"0.00017340"},{"EPOCH":"2022-02-12T22:00:00.999936","TLE_LINE1":"1 49412U 21104E   22043.91667824  .00049136  00000-0  30888-2 0  9994","PERIAPSIS":"538.615","EPHEMERIS_TYPE":"0","ECCENTRICITY":"0.00018890","APOAPSIS":"541.228","ARG_OF_PERICENTER":"43.0324","OBJECT_NAME":"STARLINK-3144","FILE":"3298678","CLASSIFICATION_TYPE":"U","PERIOD":"95.441","ELEMENT_SET_NO":"999","MEAN_MOTION":"15.08782423","REV_AT_EPOCH":"1543","INCLINATION":"53.2190","SITE":"AFETR","LAUNCH_DATE":"2021-11-13","REF_FRAME":"TEME","SEMIMAJOR_AXIS":"6918.056","TLE_LINE2":"2 49412  53.2190  59.0018 0001889  43.0324  91.7850 15.08782423 15430","MEAN_ANOMALY":"91.7850","CENTER_NAME":"EARTH","TIME_SYSTEM":"UTC","MEAN_MOTION_DDOT":"0.0000000000000","BSTAR":"0.00308880000000","OBJECT_ID":"2021-104E","MEAN_ELEMENT_THEORY":"SGP4","COUNTRY_CODE":"US","OBJECT_TYPE":"PAYLOAD","RA_OF_ASC_NODE":"59.0018","DECAY_DATE":null,"NORAD_CAT_ID":"49412","GP_ID":"195826824","RCS_SIZE":"LARGE","MEAN_MOTION_DOT":"0.00049136"},{"MEAN_MOTION_DDOT":"0.0000000000000","OBJECT_ID":"2021-104F","BSTAR":"-0.03600500000000","OBJECT_TYPE":"PAYLOAD","COUNTRY_CODE":"US","MEAN_ELEMENT_THEORY":"SGP4","RA_OF_ASC_NODE":"50.6741","NORAD_CAT_ID":"49413","DECAY_DATE":null,"MEAN_MOTION_DOT":"-0.00663209","RCS_SIZE":"LARGE","GP_ID":"195797823","PERIAPSIS":"515.528","EPHEMERIS_TYPE":"0","TLE_LINE1":"1 49413U 21104F   22043.58334491 -.00663209  00000-0 -36005-1 0  9990","EPOCH":"2022-02-12T14:00:01.000224","ECCENTRICITY":"0.00017670","ARG_OF_PERICENTER":"41.0800","OBJECT_NAME":"STARLINK-3157","APOAPSIS":"517.965","CLASSIFICATION_TYPE":"U","FILE":"3298471","MEAN_MOTION":"15.16395766","ELEMENT_SET_NO":"999","PERIOD":"94.962","SITE":"AFETR","INCLINATION":"53.2171","REV_AT_EPOCH":"1551","TLE_LINE2":"2 49413  53.2171  50.6741 0001767  41.0800  83.3865 15.16395766 15513","SEMIMAJOR_AXIS":"6894.881","MEAN_ANOMALY":"83.3865","CENTER_NAME":"EARTH","LAUNCH_DATE":"2021-11-13","REF_FRAME":"TEME","TIME_SYSTEM":"UTC"}];
